start=new Date('2022-02-20T00:00:00.000Z').valueOf();
sats=[{"RCS_SIZE":"LARGE","FILE":"3308986","TLE_LINE2":"2 49739  53.2024 317.6538 0002512  40.9107 322.2380 15.08853172  3579","MEAN_ELEMENT_THEORY":"SGP4","NORAD_CAT_ID":"49739","PERIOD":"95.437","GP_ID":"196430817","ECCENTRICITY":"0.00025120","DECAY_DATE":null,"SEMIMAJOR_AXIS":"6917.840","REV_AT_EPOCH":"357","CLASSIFICATION_TYPE":"U","REF_FRAME":"TEME","SITE":"AFETR","OBJECT_TYPE":"PAYLOAD","MEAN_MOTION_DDOT":"0.0000000000000","APOAPSIS":"541.443","CENTER_NAME":"EARTH","ELEMENT_SET_NO":"999","ARG_OF_PERICENTER":"40.9107","MEAN_MOTION_DOT":"-0.00023200","EPOCH":"2022-02-19T22:00:00.999936","RA_OF_ASC_NODE":"317.6538","COUNTRY_CODE":"US","EPHEMERIS_TYPE":"0","TIME_SYSTEM":"UTC","LAUNCH_DATE":"2021-12-02","PERIAPSIS":"537.967","INCLINATION":"53.2024","BSTAR":"-0.00144360000000","TLE_LINE1":"1 49739U 21115R   22050.91667824 -.00023200  00000-0 -14436-2 0  9993","MEAN_MOTION":"15.08853172","OBJECT_NAME":"STARLINK-3155","OBJECT_ID":"2021-115R","MEAN_ANOMALY":"322.2380"},{"SEMIMAJOR_AXIS":"6917.495","REV_AT_EPOCH":"360","ECCENTRICITY":"0.00016630","DECAY_DATE":null,"OBJECT_TYPE":"PAYLOAD","MEAN_MOTION_DDOT":"0.0000000000000","REF_FRAME":"TEME","CLASSIFICATION_TYPE":"U","SITE":"AFETR","TLE_LINE2":"2 49740  53.2185 307.5881 0001663  42.3222 155.7604 15.08966200  3607","RCS_SIZE":"LARGE","FILE":"3308986","PERIOD":"95.430","GP_ID":"196429568","NORAD_CAT_ID":"49740","MEAN_ELEMENT_THEORY":"SGP4","EPHEMERIS_TYPE":"0","TIME_SYSTEM":"UTC","LAUNCH_DATE":"2021-12-02","RA_OF_ASC_NODE":"307.5881","COUNTRY_CODE":"US","OBJECT_NAME":"STARLINK-3226","OBJECT_ID":"2021-115S","MEAN_ANOMALY":"155.7604","PERIAPSIS":"538.209","INCLINATION":"53.2185","BSTAR":"-0.02327100000000","TLE_LINE1":"1 49740U 21115S   22050.91667824 -.00354067  00000-0 -23271-1 0  9999","MEAN_MOTION":"15.08966200","APOAPSIS":"540.510","CENTER_NAME":"EARTH","MEAN_MOTION_DOT":"-0.00354067","EPOCH":"2022-02-19T22:00:00.999936","ELEMENT_SET_NO":"999","ARG_OF_PERICENTER":"42.3222"},{"CENTER_NAME":"EARTH","APOAPSIS":"539.773","EPOCH":"2022-02-19T22:00:00.999936","MEAN_MOTION_DOT":"-0.00447865","ARG_OF_PERICENTER":"57.9250","ELEMENT_SET_NO":"999","LAUNCH_DATE":"2021-12-02","TIME_SYSTEM":"UTC","EPHEMERIS_TYPE":"0","COUNTRY_CODE":"US","RA_OF_ASC_NODE":"307.5860","OBJECT_ID":"2021-115T","MEAN_ANOMALY":"179.8359","OBJECT_NAME":"STARLINK-3244","TLE_LINE1":"1 49741U 21115T   22050.91667824 -.00447865  00000-0 -29621-1 0  9994","MEAN_MOTION":"15.09216880","BSTAR":"-0.02962100000000","INCLINATION":"53.2180","PERIAPSIS":"537.414","TLE_LINE2":"2 49741  53.2180 307.5860 0001705  57.9250 179.8359 15.09216880  3607","FILE":"3308986","RCS_SIZE":"LARGE","GP_ID":"196429816","PERIOD":"95.414","MEAN_ELEMENT_THEORY":"SGP4","NORAD_CAT_ID":"49741","REV_AT_EPOCH":"360","SEMIMAJOR_AXIS":"6916.729","DECAY_DATE":null,"ECCENTRICITY":"0.00017050","MEAN_MOTION_DDOT":"0.0000000000000","OBJECT_TYPE":"PAYLOAD","SITE":"AFETR","CLASSIFICATION_TYPE":"U","REF_FRAME":"TEME"},{"CENTER_NAME":"EARTH","APOAPSIS":"540.630","EPOCH":"2022-02-19T22:00:00.999936","MEAN_MOTION_DOT":"-0.00007396","ELEMENT_SET_NO":"999","ARG_OF_PERICENTER":"39.8710","LAUNCH_DATE":"2021-12-02","TIME_SYSTEM":"UTC","EPHEMERIS_TYPE":"0","COUNTRY_CODE":"US","RA_OF_ASC_NODE":"307.6151","MEAN_ANOMALY":"118.1575","OBJECT_ID":"2021-115U","OBJECT_NAME":"STARLINK-3202","MEAN_MOTION":"15.08851925","TLE_LINE1":"1 49742U 21115U   22050.91667824 -.00007396  00000-0 -44691-3 0  9992","INCLINATION":"53.2191","BSTAR":"-0.00044691000000","PERIAPSIS":"538.788","TLE_LINE2":"2 49742  53.2191 307.6151 0001331  39.8710 118.1575 15.08851925  3609","FILE":"3308986","RCS_SIZE":"LARGE","GP_ID":"196430063","PERIOD":"95.437","NORAD_CAT_ID":"49742","MEAN_ELEMENT_THEORY":"SGP4","REV_AT_EPOCH":"360","SEMIMAJOR_AXIS":"6917.844","DECAY_DATE":null,"ECCENTRICITY":"0.00013310","MEAN_MOTION_DDOT":"0.0000000000000","OBJECT_TYPE":"PAYLOAD","SITE":"AFETR","REF_FRAME":"TEME","CLASSIFICATION_TYPE":"U"},{"DECAY_DATE":null,"ECCENTRICITY":"0.00017280","REV_AT_EPOCH":"360","SEMIMAJOR_AXIS":"6917.830","SITE":"AFETR","CLASSIFICATION_TYPE":"U","REF_FRAME":"TEME","MEAN_MOTION_DDOT":"0.0000000000000","OBJECT_TYPE":"PAYLOAD","FILE":"3308986","RCS_SIZE":"LARGE","TLE_LINE2":"2 49743  53.2181 307.5856 0001728  56.0842 161.9342 15.08856333  3603","NORAD_CAT_ID":"49743","MEAN_ELEMENT_THEORY":"SGP4","GP_ID":"196430317","PERIOD":"95.437","COUNTRY_CODE":"US","RA_OF_ASC_NODE":"307.5856","LAUNCH_DATE":"2021-12-02","TIME_SYSTEM":"UTC","EPHEMERIS_TYPE":"0","TLE_LINE1":"1 49743U 21115V   22050.91667824 -.00029911  00000-0 -18682-2 0  9990","MEAN_MOTION":"15.08856333","INCLINATION":"53.2181","BSTAR":"-0.00186820000000","PERIAPSIS":"538.500","OBJECT_ID":"2021-115V","MEAN_ANOMALY":"161.9342","OBJECT_NAME":"STARLINK-3239","CENTER_NAME":"EARTH","APOAPSIS":"540.891","ARG_OF_PERICENTER":"56.0842","ELEMENT_SET_NO":"999","EPOCH":"2022-02-19T22:00:00.999936","MEAN_MOTION_DOT":"-0.00029911"},{"ARG_OF_PERICENTER":"56.0710","ELEMENT_SET_NO":"999","EPOCH":"2022-02-19T22:00:00.999936","MEAN_MOTION_DOT":"-0.00026330","APOAPSIS":"540.733","CENTER_NAME":"EARTH","INCLINATION":"53.2125","BSTAR":"-0.00164090000000","PERIAPSIS":"538.566","MEAN_MOTION":"15.08871345","TLE_LINE1":"1 49744U 21115W   22050.91667824 -.00026330  00000-0 -16409-2 0  9998","MEAN_ANOMALY":"62.0763","OBJECT_ID":"2021-115W","OBJECT_NAME":"STARLINK-3231","COUNTRY_CODE":"US","RA_OF_ASC_NODE":"307.6945","EPHEMERIS_TYPE":"0","LAUNCH_DATE":"2021-12-02","TIME_SYSTEM":"UTC","NORAD_CAT_ID":"49744","MEAN_ELEMENT_THEORY":"SGP4","PERIOD":"95.436","GP_ID":"196429068","RCS_SIZE":"LARGE","FILE":"3308986","TLE_LINE2":"2 49744  53.2125 307.6945 0001566  56.0710  62.0763 15.08871345  3592","REF_FRAME":"TEME","CLASSIFICATION_TYPE":"U","SITE":"AFETR","OBJECT_TYPE":"PAYLOAD","MEAN_MOTION_DDOT":"0.0000000000000","DECAY_DATE":null,"ECCENTRICITY":"0.00015660","SEMIMAJOR_AXIS":"6917.785","REV_AT_EPOCH":"359"},{"TLE_LINE2":"2 49745  53.2196 307.5953 0001960  55.4289 122.6912 15.08874239  3607","RCS_SIZE":"LARGE","FILE":"3308986","PERIOD":"95.435","GP_ID":"196429316","NORAD_CAT_ID":"49745","MEAN_ELEMENT_THEORY":"SGP4","SEMIMAJOR_AXIS":"6917.776","REV_AT_EPOCH":"360","DECAY_DATE":null,"ECCENTRICITY":"0.00019600","OBJECT_TYPE":"PAYLOAD","MEAN_MOTION_DDOT":"0.0000000000000","REF_FRAME":"TEME","CLASSIFICATION_TYPE":"U","SITE":"AFETR","APOAPSIS":"540.997","CENTER_NAME":"EARTH","EPOCH":"2022-02-19T22:00:00.999936","MEAN_MOTION_DOT":"-0.00045890","ELEMENT_SET_NO":"999","ARG_OF_PERICENTER":"55.4289","EPHEMERIS_TYPE":"0","LAUNCH_DATE":"2021-12-02","TIME_SYSTEM":"UTC","COUNTRY_CODE":"US","RA_OF_ASC_NODE":"307.5953","OBJECT_ID":"2021-115X","MEAN_ANOMALY":"122.6912","OBJECT_NAME":"STARLINK-3241","INCLINATION":"53.2196","BSTAR":"-0.00288090000000","PERIAPSIS":"538.285","MEAN_MOTION":"15.08874239","TLE_LINE1":"1 49745U 21115X   22050.91667824 -.00045890  00000-0 -28809-2 0  9998"},{"EPHEMERIS_TYPE":"0","TIME_SYSTEM":"UTC","LAUNCH_DATE":"2021-12-02","RA_OF_ASC_NODE":"307.7772","COUNTRY_CODE":"US","OBJECT_NAME":"STARLINK-3233","MEAN_ANOMALY":"12.9987","OBJECT_ID":"2021-115Y","PERIAPSIS":"538.501","BSTAR":"-0.00134060000000","INCLINATION":"53.2076","MEAN_MOTION":"15.08864512","TLE_LINE1":"1 49746U 21115Y   22050.91667824 -.00021575  00000-0 -13406-2 0  9990","APOAPSIS":"540.840","CENTER_NAME":"EARTH","MEAN_MOTION_DOT":"-0.00021575","EPOCH":"2022-02-19T22:00:00.999936","ARG_OF_PERICENTER":"65.0675","ELEMENT_SET_NO":"999","SEMIMAJOR_AXIS":"6917.805","REV_AT_EPOCH":"359","ECCENTRICITY":"0.00016910","DECAY_DATE":null,"OBJECT_TYPE":"PAYLOAD","MEAN_MOTION_DDOT":"0.0000000000000","CLASSIFICATION_TYPE":"U","REF_FRAME":"TEME","SITE":"AFETR","TLE_LINE2":"2 49746  53.2076 307.7772 0001691  65.0675  12.9987 15.08864512  3597","RCS_SIZE":"LARGE","FILE":"3308986","PERIOD":"95.436","GP_ID":"196430564","NORAD_CAT_ID":"49746","MEAN_ELEMENT_THEORY":"SGP4"},{"MEAN_MOTION_DOT":"-0.00023294","EPOCH":"2022-02-19T22:00:00.999936","ELEMENT_SET_NO":"999","ARG_OF_PERICENTER":"49.6034","APOAPSIS":"540.758","CENTER_NAME":"EARTH","OBJECT_NAME":"STARLINK-3247","OBJECT_ID":"2021-115Z","MEAN_ANOMALY":"88.4559","PERIAPSIS":"538.687","BSTAR":"-0.00144990000000","INCLINATION":"53.2128","TLE_LINE1":"1 49747U 21115Z   22050.91667824 -.00023294  00000-0 -14499-2 0  9994","MEAN_MOTION":"15.08847453","EPHEMERIS_TYPE":"0","TIME_SYSTEM":"UTC","LAUNCH_DATE":"2021-12-02","RA_OF_ASC_NODE":"307.6449","COUNTRY_CODE":"US","PERIOD":"95.437","GP_ID":"196430818","MEAN_ELEMENT_THEORY":"SGP4","NORAD_CAT_ID":"49747","TLE_LINE2":"2 49747  53.2128 307.6449 0001497  49.6034  88.4559 15.08847453  3595","RCS_SIZE":"LARGE","FILE":"3308986","OBJECT_TYPE":"PAYLOAD","MEAN_MOTION_DDOT":"0.0000000000000","REF_FRAME":"TEME","CLASSIFICATION_TYPE":"U","SITE":"AFETR","SEMIMAJOR_AXIS":"6917.858","REV_AT_EPOCH":"359","ECCENTRICITY":"0.00014970","DECAY_DATE":null},{"NORAD_CAT_ID":"49748","MEAN_ELEMENT_THEORY":"SGP4","PERIOD":"95.275","GP_ID":"196429569","RCS_SIZE":"LARGE","FILE":"3308986","TLE_LINE2":"2 49748  53.2174 307.5692 0001424  62.4936 326.9300 15.11408217  3601","CLASSIFICATION_TYPE":"U","REF_FRAME":"TEME","SITE":"AFETR","OBJECT_TYPE":"PAYLOAD","MEAN_MOTION_DDOT":"0.0000000000000","DECAY_DATE":null,"ECCENTRICITY":"0.00014240","SEMIMAJOR_AXIS":"6910.041","REV_AT_EPOCH":"360","ARG_OF_PERICENTER":"62.4936","ELEMENT_SET_NO":"999","EPOCH":"2022-02-19T22:00:00.999936","MEAN_MOTION_DOT":"-0.00636502","APOAPSIS":"532.890","CENTER_NAME":"EARTH","BSTAR":"-0.03968400000000","INCLINATION":"53.2174","PERIAPSIS":"530.923","MEAN_MOTION":"15.11408217","TLE_LINE1":"1 49748U 21115AA  22050.91667824 -.00636502  00000-0 -39684-1 0  9999","MEAN_ANOMALY":"326.9300","OBJECT_ID":"2021-115AA","OBJECT_NAME":"STARLINK-3248","COUNTRY_CODE":"US","RA_OF_ASC_NODE":"307.5692","EPHEMERIS_TYPE":"0","TIME_SYSTEM":"UTC","LAUNCH_DATE":"2021-12-02"}];
